[{"OBJECT_NAME":"STARLINK-1815","OBJECT_ID":"2020-073AV","EPOCH":"2026-03-10T00:00:02.999808","MEAN_MOTION":15.68490192,"ECCENTRICITY":0.00037944,"INCLINATION":53.0443,"RA_OF_ASC_NODE":200.7345,"ARG_OF_PERICENTER":346.009,"MEAN_ANOMALY":244.5885,"EPHEMERIS_TYPE":0,"CLASSIFICATION_TYPE":"U","NORAD_CAT_ID":46713,"ELEMENT_SET_NO":999,"REV_AT_EPOCH":553,"BSTAR":9.8093788e-5,"MEAN_MOTION_DOT":0.00010738,"MEAN_MOTION_DDOT":0},{"OBJECT_NAME":"STARLINK-11131 [DTC]","OBJECT_ID":"2024-091D","EPOCH":"2026-03-09T15:24:25.428672","MEAN_MOTION":15.69637852,"ECCENTRICITY":0.0001385,"INCLINATION":53.1595,"RA_OF_ASC_NODE":206.6623,"ARG_OF_PERICENTER":58.6191,"MEAN_ANOMALY":301.4962,"EPHEMERIS_TYPE":0,"CLASSIFICATION_TYPE":"U","NORAD_CAT_ID":59756,"ELEMENT_SET_NO":999,"REV_AT_EPOCH":10550,"BSTAR":-6.315e-5,"MEAN_MOTION_DOT":-8.209e-5,"MEAN_MOTION_DDOT":0}]
