STARLINK-1815           
1 46713U 20073AV  26069.00003471  .00010738  00000+0  98094-4 0  9993
2 46713  53.0443 200.7345 0003794 346.0090 244.5885 15.68490192  5532
STARLINK-11131 [DTC]    
1 59756U 24091D   26068.64196098 -.00008209  00000+0 -63150-4 0  9992
2 59756  53.1595 206.6623 0001385  58.6191 301.4962 15.69637852105502
